NORAD_CAT_ID,OBJECT_NAME,OBJECT_TYPE,EPOCH,MEAN_MOTION,ECCENTRICITY,INCLINATION,RA_OF_ASC_NODE,ARG_OF_PERICENTER,MEAN_ANOMALY,BSTAR,MEAN_MOTION_DOT,MEAN_MOTION_DDOT,TLE_LINE0,TLE_LINE1,TLE_LINE2,SEMIMAJOR_AXIS,PERIOD,APOGEE,PERIGEE,DECAYED
53424.0,STARLINK-4532,PAYLOAD,2023-12-15 20:08:08,15.08839089,0.0001487,53.2163,172.1299,84.151,275.9651,3.6856e-05,2.99e-06,0.0,0 STARLINK-4532,1 53424U 22097AN  23349.83898816  .00000299  00000-0  36856-4 0  9992,2 53424  53.2163 172.1299 0001487  84.1510 275.9651 15.08839089 75637,6917.883,95.438,540.777,538.719,0.0
53424.0,STARLINK-4532,PAYLOAD,2023-12-16 18:23:32,15.08843954,0.0001459,53.2163,167.967,85.625,274.4909,9.2281e-05,1.181e-05,0.0,0 STARLINK-4532,1 53424U 22097AN  23350.76634303  .00001181  00000-0  92281-4 0  9990,2 53424  53.2163 167.9670 0001459  85.6250 274.4909 15.08843954 75296,6917.868,95.437,540.743,538.724,0.0
53424.0,STARLINK-4532,PAYLOAD,2023-12-17 15:03:32,15.08842449,0.0001508,53.2165,164.0996,79.6748,280.4414,3.299e-05,2.37e-06,0.0,0 STARLINK-4532,1 53424U 22097AN  23351.62746524  .00000237  00000-0  32990-4 0  9997,2 53424  53.2165 164.0996 0001508  79.6748 280.4414 15.08842449 75901,6917.873,95.437,540.781,538.695,0.0
53424.0,STARLINK-4532,PAYLOAD,2023-12-17 18:14:19,15.08841835,0.0001409,53.216,163.5067,85.5693,274.546,2.5643e-05,1.2e-06,0.0,0 STARLINK-4532,1 53424U 22097AN  23351.75994532  .00000120  00000-0  25643-4 0  9993,2 53424  53.2160 163.5067 0001409  85.5693 274.5460 15.08841835 75446,6917.875,95.437,540.715,538.765,0.0
53424.0,STARLINK-4532,PAYLOAD,2023-12-18 14:54:19,15.08842973,0.0001477,53.2165,159.6373,101.314,258.8018,3.6874e-05,2.99e-06,0.0,0 STARLINK-4532,1 53424U 22097AN  23352.62106136  .00000299  00000-0  36874-4 0  9990,2 53424  53.2165 159.6373 0001477 101.3140 258.8018 15.08842973 76052,6917.871,95.437,540.758,538.715,0.0
53424.0,STARLINK-4532,PAYLOAD,2023-12-18 16:29:42,15.088422,0.0001435,53.2163,159.3388,100.4682,259.6472,3.0999e-05,2.05e-06,0.0,0 STARLINK-4532,1 53424U 22097AN  23352.68730171  .00000205  00000-0  30999-4 0  9997,2 53424  53.2163 159.3388 0001435 100.4682 259.6472 15.08842200 76065,6917.874,95.437,540.731,538.746,0.0
53424.0,STARLINK-4532,PAYLOAD,2023-12-19 14:45:07,15.0883704,0.0001296,53.217,155.1764,94.4339,265.6802,6.8076e-06,-1.8e-06,0.0,0 STARLINK-4532,1 53424U 22097AN  23353.61466647 -.00000180  00000-0  68076-5 0  9996,2 53424  53.2170 155.1764 0001296  94.4339 265.6802 15.08837040 76207,6917.889,95.438,540.651,538.858,0.0
53424.0,STARLINK-4532,PAYLOAD,2023-12-19 17:55:53,15.08837375,0.0001308,53.2166,154.58,92.4152,267.699,6.0456e-06,-1.92e-06,0.0,0 STARLINK-4532,1 53424U 22097AN  23353.74714627 -.00000192  00000-0  60456-5 0  9991,2 53424  53.2166 154.5800 0001308  92.4152 267.6990 15.08837375 75740,6917.888,95.438,540.658,538.849,0.0
53424.0,STARLINK-4532,PAYLOAD,2023-12-20 16:11:17,15.08834582,0.0001288,53.2167,150.4163,91.7059,268.4081,1.9329e-05,2e-07,0.0,0 STARLINK-4532,1 53424U 22097AN  23354.67451005  .00000020  00000-0  19329-4 0  9993,2 53424  53.2167 150.4163 0001288  91.7059 268.4081 15.08834582 76369,6917.897,95.438,540.653,538.871,0.0
53424.0,STARLINK-4532,PAYLOAD,2023-12-21 14:26:42,15.08831907,0.0001234,53.2163,146.2546,94.592,265.5213,2.6435e-05,1.33e-06,0.0,0 STARLINK-4532,1 53424U 22097AN  23355.60187591  .00000133  00000-0  26435-4 0  9994,2 53424  53.2163 146.2546 0001234  94.5920 265.5213 15.08831907 76501,6917.905,95.438,540.624,538.916,0.0
53424.0,STARLINK-4532,PAYLOAD,2023-12-21 16:02:03,15.08857794,0.0001373,53.2165,145.9566,108.7207,251.3934,0.00024988,3.693e-05,0.0,0 STARLINK-4532,1 53424U 22097AN  23355.66809503  .00003693  00000-0  24988-3 0  9998,2 53424  53.2165 145.9566 0001373 108.7207 251.3934 15.08857794 76034,6917.826,95.436,540.641,538.741,0.0
53424.0,STARLINK-4532,PAYLOAD,2023-12-22 14:17:28,15.08842482,0.0001647,53.217,141.7962,62.5102,297.6057,0.00011999,1.622e-05,0.0,0 STARLINK-4532,1 53424U 22097AN  23356.59546914  .00001622  00000-0  11999-3 0  9993,2 53424  53.2170 141.7962 0001647  62.5102 297.6057 15.08842482 76654,6917.873,95.437,540.877,538.598,0.0
53424.0,STARLINK-4532,PAYLOAD,2023-12-22 17:28:14,15.08839992,0.0001379,53.2175,141.1986,86.3044,273.8106,6.1862e-05,6.97e-06,0.0,0 STARLINK-4532,1 53424U 22097AN  23356.72795013  .00000697  00000-0  61862-4 0  9990,2 53424  53.2175 141.1986 0001379  86.3044 273.8106 15.08839992 76192,6917.88,95.438,540.699,538.791,0.0
53424.0,STARLINK-4532,PAYLOAD,2023-12-23 09:22:07,15.08795797,0.0001784,53.2166,138.2285,95.2188,264.9008,0.00046388,7.094e-05,0.0,0 STARLINK-4532,1 53424U 22097AN  23357.39035953  .00007094  00000-0  46388-3 0  9997,2 53424  53.2166 138.2285 0001784  95.2188 264.9008 15.08795797 76296,6918.016,95.44,541.115,538.646,0.0
53424.0,STARLINK-4532,PAYLOAD,2023-12-23 14:08:16,15.08835951,0.0001279,53.2163,137.336,98.1882,261.9255,-1.3573e-05,-5.04e-06,0.0,0 STARLINK-4532,1 53424U 22097AN  23357.58907798 -.00000504  00000-0 -13573-4 0  9995,2 53424  53.2163 137.3360 0001279  98.1882 261.9255 15.08835951 76804,6917.893,95.438,540.643,538.873,0.0
53424.0,STARLINK-4532,PAYLOAD,2023-12-23 15:43:39,15.08832261,0.0001318,53.2164,137.0387,95.8343,264.28,5.3553e-05,5.64e-06,0.0,0 STARLINK-4532,1 53424U 22097AN  23357.65531794  .00000564  00000-0  53553-4 0  9998,2 53424  53.2164 137.0387 0001318  95.8343 264.2800 15.08832261 76332,6917.904,95.438,540.681,538.857,0.0
53424.0,STARLINK-4532,PAYLOAD,2023-12-24 09:12:53,15.08841651,0.0001414,53.2166,133.7671,87.4665,272.6489,0.00010017,1.307e-05,0.0,0 STARLINK-4532,1 53424U 22097AN  23358.38394913  .00001307  00000-0  10017-3 0  9992,2 53424  53.2166 133.7671 0001414  87.4665 272.6489 15.08841651 76445,6917.875,95.437,540.719,538.762,0.0
53424.0,STARLINK-4532,PAYLOAD,2023-12-24 13:59:02,15.08846933,0.0001381,53.2162,132.8756,86.6677,273.4473,0.00014343,1.996e-05,0.0,0 STARLINK-4532,1 53424U 22097AN  23358.58266406  .00001996  00000-0  14343-3 0  9999,2 53424  53.2162 132.8756 0001381  86.6677 273.4473 15.08846933 76958,6917.859,95.437,540.68,538.769,0.0
53424.0,STARLINK-4532,PAYLOAD,2023-12-24 15:34:25,15.08849868,0.0001389,53.2163,132.5779,91.5485,268.5667,0.0001366,1.887e-05,0.0,0 STARLINK-4532,1 53424U 22097AN  23358.64890235  .00001887  00000-0  13660-3 0  9999,2 53424  53.2163 132.5779 0001389  91.5485 268.5667 15.08849868 76489,6917.85,95.437,540.676,538.754,0.0
53424.0,STARLINK-4532,PAYLOAD,2023-12-25 12:14:26,15.0883985,0.0001509,53.2166,128.7098,101.3766,258.7396,2.8727e-05,1.69e-06,0.0,0 STARLINK-4532,1 53424U 22097AN  23359.51003243  .00000169  00000-0  28727-4 0  9994,2 53424  53.2166 128.7098 0001509 101.3766 258.7396 15.08839850 76614,6917.881,95.438,540.79,538.702,0.0
53424.0,STARLINK-4532,PAYLOAD,2023-12-25 13:49:49,15.08839193,0.0001481,53.2164,128.4125,102.9305,257.1853,2.698e-05,1.41e-06,0.0,0 STARLINK-4532,1 53424U 22097AN  23359.57627291  .00000141  00000-0  26980-4 0  9994,2 53424  53.2164 128.4125 0001481 102.9305 257.1853 15.08839193 77101,6917.883,95.438,540.772,538.723,0.0
53424.0,STARLINK-4532,PAYLOAD,2023-12-25 15:25:13,15.08837479,0.0001356,53.2165,128.1171,85.5992,274.5155,3.2296e-05,2.26e-06,0.0,0 STARLINK-4532,1 53424U 22097AN  23359.64251405  .00000226  00000-0  32296-4 0  9993,2 53424  53.2165 128.1171 0001356  85.5992 274.5155 15.08837479 77113,6917.888,95.438,540.691,538.815,0.0
53424.0,STARLINK-4532,PAYLOAD,2023-12-26 12:05:14,15.08838606,0.0001381,53.2169,124.2504,87.4005,272.7145,-0.00010659,-1.984e-05,0.0,0 STARLINK-4532,1 53424U 22097AN  23360.50363962 -.00001984  00000-0 -10659-3 0  9994,2 53424  53.2169 124.2504 0001381  87.4005 272.7145 15.08838606 76760,6917.885,95.438,540.705,538.794,0.0
53424.0,STARLINK-4532,PAYLOAD,2023-12-26 13:40:37,15.08839561,0.0001411,53.2169,123.9535,82.5699,277.5454,-9.2529e-05,-1.76e-05,0.0,0 STARLINK-4532,1 53424U 22097AN  23360.56987875 -.00001760  00000-0 -92529-4 0  9994,2 53424  53.2169 123.9535 0001411  82.5699 277.5454 15.08839561 77251,6917.882,95.438,540.723,538.771,0.0
53424.0,STARLINK-4532,PAYLOAD,2023-12-26 18:26:46,15.08844855,0.0001349,53.2171,123.0599,96.5788,263.5358,-8.3314e-05,-1.614e-05,0.0,0 STARLINK-4532,1 53424U 22097AN  23360.76859403 -.00001614  00000-0 -83314-4 0  9991,2 53424  53.2171 123.0599 0001349  96.5788 263.5358 15.08844855 77282,6917.866,95.437,540.664,538.797,0.0
53424.0,STARLINK-4532,PAYLOAD,2023-12-27 13:31:24,15.08839683,0.0001436,53.2175,119.4902,107.4294,252.6856,6.2584e-05,7.08e-06,0.0,0 STARLINK-4532,1 53424U 22097AN  23361.56347523  .00000708  00000-0  62584-4 0  9992,2 53424  53.2175 119.4902 0001436 107.4294 252.6856 15.08839683 77403,6917.881,95.438,540.74,538.753,0.0
53424.0,STARLINK-4532,PAYLOAD,2023-12-27 15:06:47,15.0884132,0.0001415,53.2178,119.1926,105.2049,254.9099,6.7086e-05,7.8e-06,0.0,0 STARLINK-4532,1 53424U 22097AN  23361.62971425  .00000780  00000-0  67086-4 0  9995,2 53424  53.2178 119.1926 0001415 105.2049 254.9099 15.08841320 77416,6917.876,95.437,540.72,538.762,0.0
53424.0,STARLINK-4532,PAYLOAD,2023-12-28 11:46:48,15.08833566,0.0001409,53.2176,115.3317,86.0224,274.0929,7.2284e-05,8.62e-06,0.0,0 STARLINK-4532,1 53424U 22097AN  23362.49084280  .00000862  00000-0  72284-4 0  9992,2 53424  53.2176 115.3317 0001409  86.0224 274.0929 15.08833566 77069,6917.9,95.438,540.74,538.79,0.0
53424.0,STARLINK-4532,PAYLOAD,2023-12-28 13:22:12,15.08780947,0.0001686,53.2181,115.0351,87.3662,272.7523,0.00077451,0.0001204,0.0,0 STARLINK-4532,1 53424U 22097AN  23362.55708995  .00012040  00000-0  77451-3 0  9996,2 53424  53.2181 115.0351 0001686  87.3662 272.7523 15.08780947 77550,6918.061,95.441,541.092,538.76,0.0
53424.0,STARLINK-4532,PAYLOAD,2023-12-28 14:57:34,15.08840385,0.000134,53.217,114.7347,104.4154,255.6987,7.8902e-05,9.68e-06,0.0,0 STARLINK-4532,1 53424U 22097AN  23362.62331753  .00000968  00000-0  78902-4 0  9997,2 53424  53.2170 114.7347 0001340 104.4154 255.6987 15.08840385 77088,6917.879,95.438,540.671,538.817,0.0
